OBJECT_NAME,OBJECT_ID,EPOCH,MEAN_MOTION,ECCENTRICITY,INCLINATION,RA_OF_ASC_NODE,ARG_OF_PERICENTER,MEAN_ANOMALY,EPHEMERIS_TYPE,CLASSIFICATION_TYPE,NORAD_CAT_ID,ELEMENT_SET_NO,REV_AT_EPOCH,BSTAR,MEAN_MOTION_DOT,MEAN_MOTION_DDOT
SWARM B,2013-067A,2026-07-04T20:59:42.743328,15.28668551,.00027093,87.7457,336.9425,79.9274,280.2281,0,U,39451,999,68594,.18332622E-3,.5141E-4,0
SWARM A,2013-067B,2026-07-04T21:31:30.514944,15.51305736,.00031991,87.3304,49.6583,96.2773,263.8852,0,U,39452,999,70899,.28821282E-3,.16955E-3,0
SWARM C,2013-067C,2026-07-04T21:31:22.015776,15.51304950,.00031853,87.3303,48.2392,96.2793,263.8831,0,U,39453,999,70895,.28971494E-3,.17043E-3,0
BRITE-CA1 (TORONTO),2014-033L,2026-07-04T15:14:52.964736,14.72709042,.00777067,97.9761,314.2438,220.2855,139.2579,0,U,40020,999,64478,.22477598E-3,.145E-4,0
OCO 2,2014-035A,2026-07-04T19:17:00.521664,14.57126814,.00014774,98.2019,126.8285,81.5801,278.5565,0,U,40059,999,63861,.13926573E-3,.582E-5,0
BRITE-PL2 (HEWELIUSZ),2014-049B,2026-07-04T01:02:11.887296,14.94655576,.00150118,97.9112,297.1746,57.2784,302.9880,0,U,40119,999,64396,.20566641E-3,.2174E-4,0
MMS 1,2015-011A,2026-07-05T00:00:02.999808,0.28168514,.83350273,72.5892,348.5373,167.7685,315.9125,0,U,40482,999,139,0,-.782E-5,0
MMS 2,2015-011B,2026-07-05T00:00:02.999808,0.28168399,.83378225,72.5934,348.5362,167.7716,315.9019,0,U,40483,999,139,0,-.782E-5,0
MMS 3,2015-011C,2026-07-05T00:00:02.999808,0.28168627,.83361963,72.5930,348.5481,167.7791,315.8762,0,U,40484,999,139,0,-.782E-5,0
MMS 4,2015-011D,2026-07-05T00:00:02.999808,0.28168641,.83361221,72.5890,348.5315,167.7889,315.8698,0,U,40485,999,139,0,-.782E-5,0
ASTROSAT,2015-052A,2026-07-04T01:03:40.576896,14.82537819,.00085759,5.9980,34.0032,275.4229,84.4920,0,U,40930,999,58233,.14146054E-3,.1836E-4,0
DAMPE,2015-078A,2026-07-04T22:45:28.081152,15.30830959,.00126637,97.4558,191.5028,21.1132,339.0629,0,U,41173,999,58726,.35426668E-4,.979E-5,0
PISAT,2016-059B,2026-07-04T10:41:07.732896,14.69015535,.0029785,97.8184,185.1567,147.8327,212.4704,0,U,41784,999,52227,.21170187E-3,.1202E-4,0
HXMT (HUIYAN),2017-034A,2026-07-04T23:01:51.937824,15.18621519,.00328168,43.0141,84.0703,258.4181,101.2983,0,U,42758,999,50036,.35017236E-3,.7248E-4,0
FLYING LAPTOP,2017-042G,2026-07-04T23:34:44.188896,15.01265311,.00199667,97.4771,340.8398,64.9202,295.4092,0,U,42831,999,48912,.46168584E-3,.5903E-4,0
ZHANGHENG 1-01 (CSES-1),2018-015C,2026-07-04T23:14:36.588192,15.21058206,.00179184,97.6889,351.9827,201.0956,158.9542,0,U,43194,999,46734,.48380952E-3,.10726E-3,0
SALSAT,2020-068K,2026-07-04T17:44:40.784352,15.30063013,.00082227,97.8855,189.8756,233.3566,126.6918,0,U,46495,999,31804,.46989133E-3,.13612E-3,0
IXPE,2021-121A,2026-07-05T00:00:02.999808,15.10408324,.00073347,0.2283,182.9181,349.5695,245.6473,0,U,49954,999,569,.14674891E-2,.25878E-3,0
SMILE,2026-109A,2026-06-07T09:11:54.544416,7.54049028,.3310191,69.9787,209.3069,288.5544,45.7342,0,U,69123,999,248,-.36778157E-3,-.41E-6,0
