SWARM B                 
1 39451U 13067A   26185.87480027  .00005141  00000+0  18333-3 0  9998
2 39451  87.7457 336.9425 0002709  79.9274 280.2281 15.28668551685942
SWARM A                 
1 39452U 13067B   26185.89688096  .00016955  00000+0  28821-3 0  9995
2 39452  87.3304  49.6583 0003199  96.2773 263.8852 15.51305736708994
SWARM C                 
1 39453U 13067C   26185.89678259  .00017043  00000+0  28971-3 0  9991
2 39453  87.3303  48.2392 0003185  96.2793 263.8831 15.51304950708954
BRITE-CA1 (TORONTO)     
1 40020U 14033L   26185.63533524  .00001450  00000+0  22478-3 0  9995
2 40020  97.9761 314.2438 0077706 220.2855 139.2579 14.72709042644784
OCO 2                   
1 40059U 14035A   26185.80347826  .00000582  00000+0  13927-3 0  9990
2 40059  98.2019 126.8285 0001477  81.5801 278.5565 14.57126814638614
BRITE-PL2 (HEWELIUSZ)   
1 40119U 14049B   26185.04319314  .00002174  00000+0  20567-3 0  9996
2 40119  97.9112 297.1746 0015011  57.2784 302.9880 14.94655576643963
MMS 1                   
1 40482U 15011A   26186.00003472 -.00000782  00000+0  00000+0 0  9991
2 40482  72.5892 348.5373 8335027 167.7685 315.9125  0.28168514  1398
MMS 2                   
1 40483U 15011B   26186.00003472 -.00000782  00000+0  00000+0 0  9992
2 40483  72.5934 348.5362 8337822 167.7716 315.9019  0.28168399  1397
MMS 3                   
1 40484U 15011C   26186.00003472 -.00000782  00000+0  00000+0 0  9993
2 40484  72.5930 348.5481 8336196 167.7791 315.8762  0.28168627  1390
MMS 4                   
1 40485U 15011D   26186.00003472 -.00000782  00000+0  00000+0 0  9994
2 40485  72.5890 348.5315 8336122 167.7889 315.8698  0.28168641  1393
ASTROSAT                
1 40930U 15052A   26185.04421964  .00001836  00000+0  14146-3 0  9997
2 40930   5.9980  34.0032 0008575 275.4229  84.4920 14.82537819582333
DAMPE                   
1 41173U 15078A   26185.94824168  .00000979  00000+0  35427-4 0  9990
2 41173  97.4558 191.5028 0012663  21.1132 339.0629 15.30830959587263
PISAT                   
1 41784U 16059B   26185.44522839  .00001202  00000+0  21170-3 0  9992
2 41784  97.8184 185.1567 0029785 147.8327 212.4704 14.69015535522276
HXMT (HUIYAN)           
1 42758U 17034A   26185.95962891  .00007248  00000+0  35017-3 0  9991
2 42758  43.0141  84.0703 0032816 258.4181 101.2983 15.18621519500369
FLYING LAPTOP           
1 42831U 17042G   26185.98245589  .00005903  00000+0  46169-3 0  9999
2 42831  97.4771 340.8398 0019966  64.9202 295.4092 15.01265311489124
ZHANGHENG 1-01 (CSES-1) 
1 43194U 18015C   26185.96847903  .00010726  00000+0  48381-3 0  9996
2 43194  97.6889 351.9827 0017918 201.0956 158.9542 15.21058206467342
SALSAT                  
1 46495U 20068K   26185.73936093  .00013612  00000+0  46989-3 0  9997
2 46495  97.8855 189.8756 0008222 233.3566 126.6918 15.30063013318049
IXPE                    
1 49954U 21121A   26186.00003472  .00025878  00000+0  14675-2 0  9991
2 49954   0.2283 182.9181 0007334 349.5695 245.6473 15.10408324  5695
SMILE                   
1 69123U 26109A   26158.38327019 -.00000041  00000+0 -36778-3 0  9994
2 69123  69.9787 209.3069 3310191 288.5544  45.7342  7.54049028  2480
